{"type": "FeatureCollection", "features": [{"type": "Feature", "properties": {"@id": "relation/1762719", "admin_level": "10", "boundary": "administrative", "name": "Bagong Silangan", "postal_code": "1119", "ref": "137404010", "type": "boundary", "wikidata": "Q4842071", "wikipedia": "en:Bagong Silangan", "total_cases": 577, "color": "#ffcc00"}, "geometry": {"type": "Polygon", "coordinates": [[[121.095401, 14.6958493], [121.0961928, 14.6950639], [121.0963405, 14.6947992], [121.0963341, 14.6930445], [121.0966519, 14.6930653], [121.098926, 14.6931229], [121.0993881, 14.693133], [121.1094486, 14.6930854], [121.1115295, 14.6930258], [121.1115761, 14.693783], [121.1114034, 14.6951533], [121.1114141, 14.6957288], [121.1121743, 14.6964194], [121.1121494, 14.696915], [121.1124859, 14.6976077], [121.112718, 14.6977972], [121.1132035, 14.6978983], [121.1136835, 14.6981078], [121.1139464, 14.6980592], [121.1171018, 14.7208067], [121.1183676, 14.7298888], [121.1184868, 14.7307439], [121.1180961, 14.7298158], [121.118017, 14.729688], [121.1179389, 14.7295132], [121.1177766, 14.7292746], [121.1177364, 14.7291941], [121.1177029, 14.7291176], [121.1176667, 14.7290294], [121.1176217, 14.7288965], [121.117584, 14.7287845], [121.1175306, 14.7286086], [121.1174605, 14.7283897], [121.1174015, 14.72822], [121.117326, 14.7280384], [121.1172992, 14.7279905], [121.1172777, 14.7279554], [121.1172511, 14.7279196], [121.1172251, 14.7278908], [121.1171901, 14.7278643], [121.1171651, 14.727853], [121.1171195, 14.7278296], [121.1170629, 14.727806], [121.1169547, 14.7277723], [121.1167074, 14.727696], [121.1154569, 14.7272518], [121.1152476, 14.7271719], [121.1150603, 14.7270938], [121.1148984, 14.7270229], [121.1140474, 14.726705], [121.1138618, 14.726549], [121.1135541, 14.7263935], [121.1134462, 14.7263354], [121.1133221, 14.7262586], [121.1131914, 14.726172], [121.1131431, 14.726124], [121.1131086, 14.7260781], [121.1130707, 14.7260189], [121.1130291, 14.7259502], [121.1124532, 14.7248539], [121.1124115, 14.7247835], [121.112372, 14.7247044], [121.1123392, 14.7246525], [121.1123277, 14.7246026], [121.1123211, 14.7245415], [121.1123183, 14.7244754], [121.1123197, 14.7243834], [121.112327, 14.724277], [121.1123257, 14.7241667], [121.112362, 14.7240399], [121.1123881, 14.723919], [121.1124143, 14.7238265], [121.1124337, 14.7237595], [121.1124645, 14.7236778], [121.1125142, 14.7235752], [121.1126261, 14.7233831], [121.112763, 14.7231765], [121.1128695, 14.723024], [121.1129057, 14.7229566], [121.1129294, 14.7228981], [121.112946, 14.7228424], [121.112958, 14.7227776], [121.1129647, 14.7227153], [121.1129701, 14.7226362], [121.1129661, 14.7225506], [121.1129533, 14.7224578], [121.1129379, 14.7223872], [121.1129117, 14.7223085], [121.1128883, 14.7222601], [121.1128555, 14.7222057], [121.1128226, 14.7221602], [121.1127703, 14.7221048], [121.1127059, 14.7220538], [121.1126501, 14.7220152], [121.1125678, 14.7219643], [121.1124457, 14.7218917], [121.1121346, 14.7217166], [121.1120152, 14.7216517], [121.1119455, 14.721618], [121.1118825, 14.721596], [121.1118403, 14.7215807], [121.1117886, 14.7215726], [121.1117363, 14.7215661], [121.1116552, 14.7215613], [121.111825, 14.7138232], [121.1105084, 14.7131772], [121.10814, 14.7121021], [121.1065893, 14.7117137], [121.1062072, 14.7114827], [121.1003961, 14.704584], [121.0999442, 14.7005952], [121.0988205, 14.6997491], [121.0972387, 14.6979588], [121.0971743, 14.6978884], [121.0968498, 14.6972356], [121.0963771, 14.6968231], [121.0959843, 14.6964463], [121.0957326, 14.6962161], [121.095401, 14.6958493]]]}, "id": "relation/1762719"}, {"type": "Feature", "properties": {"@id": "way/28723020", "admin_level": "10", "boundary": "administrative", "wikipedia": "en:Payatas", "@relations": [{"role": "outer", "rel": 1762719, "reltags": {"admin_level": "10", "boundary": "administrative", "name": "Bagong Silangan", "postal_code": "1119", "ref": "137404010", "type": "boundary", "wikidata": "Q4842071", "wikipedia": "en:Bagong Silangan"}}], "total_cases": 0, "color": "#cccccc"}, "geometry": {"type": "LineString", "coordinates": [[121.1115295, 14.6930258], [121.1094486, 14.6930854], [121.0993881, 14.693133], [121.098926, 14.6931229], [121.0966519, 14.6930653], [121.0963341, 14.6930445], [121.0963405, 14.6947992], [121.0961928, 14.6950639], [121.095401, 14.6958493]]}, "id": "way/28723020"}, {"type": "Feature", "properties": {"@id": "way/220858811", "admin_level": "7", "boundary": "administrative", "@relations": [{"role": "outer", "rel": 1762719, "reltags": {"admin_level": "10", "boundary": "administrative", "name": "Bagong Silangan", "postal_code": "1119", "ref": "137404010", "type": "boundary", "wikidata": "Q4842071", "wikipedia": "en:Bagong Silangan"}}], "total_cases": 0, "color": "#cccccc"}, "geometry": {"type": "LineString", "coordinates": [[121.1124532, 14.7248539], [121.1130291, 14.7259502], [121.1130707, 14.7260189], [121.1131086, 14.7260781], [121.1131431, 14.726124], [121.1131914, 14.726172], [121.1133221, 14.7262586], [121.1134462, 14.7263354], [121.1135541, 14.7263935], [121.1138618, 14.726549], [121.1140474, 14.726705], [121.1148984, 14.7270229], [121.1150603, 14.7270938], [121.1152476, 14.7271719], [121.1154569, 14.7272518], [121.1167074, 14.727696], [121.1169547, 14.7277723], [121.1170629, 14.727806], [121.1171195, 14.7278296], [121.1171651, 14.727853], [121.1171901, 14.7278643], [121.1172251, 14.7278908], [121.1172511, 14.7279196], [121.1172777, 14.7279554], [121.1172992, 14.7279905], [121.117326, 14.7280384], [121.1174015, 14.72822], [121.1174605, 14.7283897], [121.1175306, 14.7286086], [121.117584, 14.7287845], [121.1176217, 14.7288965], [121.1176667, 14.7290294], [121.1177029, 14.7291176], [121.1177364, 14.7291941], [121.1177766, 14.7292746], [121.1179389, 14.7295132]]}, "id": "way/220858811"}, {"type": "Feature", "properties": {"@id": "way/220858812", "admin_level": "7", "boundary": "administrative", "@relations": [{"role": "outer", "rel": 1762719, "reltags": {"admin_level": "10", "boundary": "administrative", "name": "Bagong Silangan", "postal_code": "1119", "ref": "137404010", "type": "boundary", "wikidata": "Q4842071", "wikipedia": "en:Bagong Silangan"}}], "total_cases": 0, "color": "#cccccc"}, "geometry": {"type": "LineString", "coordinates": [[121.1116552, 14.7215613], [121.1117363, 14.7215661], [121.1117886, 14.7215726], [121.1118403, 14.7215807], [121.1118825, 14.721596], [121.1119455, 14.721618], [121.1120152, 14.7216517], [121.1121346, 14.7217166], [121.1124457, 14.7218917], [121.1125678, 14.7219643], [121.1126501, 14.7220152], [121.1127059, 14.7220538], [121.1127703, 14.7221048], [121.1128226, 14.7221602], [121.1128555, 14.7222057], [121.1128883, 14.7222601], [121.1129117, 14.7223085], [121.1129379, 14.7223872], [121.1129533, 14.7224578], [121.1129661, 14.7225506], [121.1129701, 14.7226362], [121.1129647, 14.7227153], [121.112958, 14.7227776], [121.112946, 14.7228424], [121.1129294, 14.7228981], [121.1129057, 14.7229566], [121.1128695, 14.723024], [121.112763, 14.7231765], [121.1126261, 14.7233831], [121.1125142, 14.7235752], [121.1124645, 14.7236778], [121.1124337, 14.7237595], [121.1124143, 14.7238265], [121.1123881, 14.723919], [121.112362, 14.7240399], [121.1123257, 14.7241667], [121.112327, 14.724277], [121.1123197, 14.7243834], [121.1123183, 14.7244754], [121.1123211, 14.7245415], [121.1123277, 14.7246026], [121.1123392, 14.7246525], [121.112372, 14.7247044], [121.1124115, 14.7247835], [121.1124532, 14.7248539]]}, "id": "way/220858812"}, {"type": "Feature", "properties": {"@id": "way/220858814", "admin_level": "7", "boundary": "administrative", "@relations": [{"role": "outer", "rel": 1762719, "reltags": {"admin_level": "10", "boundary": "administrative", "name": "Bagong Silangan", "postal_code": "1119", "ref": "137404010", "type": "boundary", "wikidata": "Q4842071", "wikipedia": "en:Bagong Silangan"}}], "total_cases": 0, "color": "#cccccc"}, "geometry": {"type": "LineString", "coordinates": [[121.1184868, 14.7307439], [121.1180961, 14.7298158], [121.118017, 14.729688], [121.1179389, 14.7295132]]}, "id": "way/220858814"}, {"type": "Feature", "properties": {"@id": "way/797393028", "boat": "yes", "name": "Marikina River", "name:tl": "Ilog Marikina", "waterway": "river", "wikidata": "Q3551251", "@relations": [{"role": "outer", "rel": 1762719, "reltags": {"admin_level": "10", "boundary": "administrative", "name": "Bagong Silangan", "postal_code": "1119", "ref": "137404010", "type": "boundary", "wikidata": "Q4842071", "wikipedia": "en:Bagong Silangan"}}], "total_cases": 0, "color": "#cccccc"}, "geometry": {"type": "LineString", "coordinates": [[121.1139464, 14.6980592], [121.1136835, 14.6981078], [121.1132035, 14.6978983], [121.112718, 14.6977972], [121.1124859, 14.6976077], [121.1121494, 14.696915], [121.1121743, 14.6964194], [121.1114141, 14.6957288], [121.1114034, 14.6951533], [121.1115761, 14.693783], [121.1115295, 14.6930258]]}, "id": "way/797393028"}, {"type": "Feature", "properties": {"@id": "way/797393029", "admin_level": "3", "boundary": "administrative", "@relations": [{"role": "outer", "rel": 1762719, "reltags": {"admin_level": "10", "boundary": "administrative", "name": "Bagong Silangan", "postal_code": "1119", "ref": "137404010", "type": "boundary", "wikidata": "Q4842071", "wikipedia": "en:Bagong Silangan"}}], "total_cases": 0, "color": "#cccccc"}, "geometry": {"type": "LineString", "coordinates": [[121.1171018, 14.7208067], [121.1139464, 14.6980592]]}, "id": "way/797393029"}, {"type": "Feature", "properties": {"@id": "way/1332718045", "admin_level": "3", "boundary": "administrative", "@relations": [{"role": "outer", "rel": 1762719, "reltags": {"admin_level": "10", "boundary": "administrative", "name": "Bagong Silangan", "postal_code": "1119", "ref": "137404010", "type": "boundary", "wikidata": "Q4842071", "wikipedia": "en:Bagong Silangan"}}], "total_cases": 0, "color": "#cccccc"}, "geometry": {"type": "LineString", "coordinates": [[121.1184868, 14.7307439], [121.1183676, 14.7298888], [121.1171018, 14.7208067]]}, "id": "way/1332718045"}, {"type": "Feature", "properties": {"@id": "node/8141655637", "button_operated": "no", "crossing": "unmarked", "crossing:markings": "no", "highway": "crossing", "kerb": "raised", "tactile_paving": "no", "wheelchair": "no", "total_cases": 0, "color": "#cccccc"}, "geometry": {"type": "Point", "coordinates": [121.1171901, 14.7278643]}, "id": "node/8141655637"}, {"type": "Feature", "properties": {"@id": "node/8265527614", "admin_level": "10", "admin_type:PH": "barangay", "is_in:city": "Quezon City", "name": "Bagong Silangan", "old_ref": "137404010", "place": "quarter", "population": "106886", "population:date": "2020-05-01", "postal_code": "1119", "ref": "1381300010", "@relations": [{"role": "label", "rel": 1762719, "reltags": {"admin_level": "10", "boundary": "administrative", "name": "Bagong Silangan", "postal_code": "1119", "ref": "137404010", "type": "boundary", "wikidata": "Q4842071", "wikipedia": "en:Bagong Silangan"}}], "total_cases": 577, "color": "#ffcc00"}, "geometry": {"type": "Point", "coordinates": [121.1104093, 14.6978613]}, "id": "node/8265527614"}, {"type": "Feature", "properties": {"@id": "relation/1762720", "admin_level": "10", "boundary": "administrative", "name": "Batasan Hills", "postal_code": "1126", "ref": "137404139", "type": "boundary", "wikidata": "Q4868632", "wikipedia": "en:Batasan Hills", "total_cases": 590, "color": "#ffcc00"}, "geometry": {"type": "Polygon", "coordinates": [[[121.0989231, 14.66828], [121.0993176, 14.6692092], [121.1002379, 14.6700618], [121.103246, 14.6723195], [121.1036883, 14.6727604], [121.1050187, 14.6744874], [121.105877, 14.6752513], [121.1066178, 14.6757895], [121.1079596, 14.6772824], [121.1088846, 14.6787885], [121.1101685, 14.6808973], [121.1116706, 14.6834048], [121.1119916, 14.6844409], [121.1121169, 14.6846502], [121.1121855, 14.6852978], [121.1113444, 14.6892498], [121.1113484, 14.6894359], [121.1113873, 14.6912424], [121.1115295, 14.6930258], [121.1094486, 14.6930854], [121.0993881, 14.693133], [121.098926, 14.6931229], [121.0966519, 14.6930653], [121.0963341, 14.6930445], [121.0963405, 14.6947992], [121.0961928, 14.6950639], [121.095401, 14.6958493], [121.0945856, 14.6966323], [121.0945421, 14.6965876], [121.0929047, 14.6949282], [121.0928967, 14.693922], [121.0928632, 14.6932789], [121.0873239, 14.6932842], [121.0872726, 14.6898929], [121.0872502, 14.688873], [121.0872209, 14.6883636], [121.08716, 14.6878519], [121.0870275, 14.687179], [121.0866219, 14.6859341], [121.0858473, 14.684137], [121.0838333, 14.6794392], [121.0830891, 14.6778204], [121.0829164, 14.6775036], [121.0826462, 14.6770183], [121.0832382, 14.6770204], [121.0845172, 14.6769836], [121.0849257, 14.6769853], [121.085907, 14.6770124], [121.0864589, 14.6770131], [121.0886673, 14.6769804], [121.0886216, 14.6757298], [121.0886625, 14.674584], [121.0886771, 14.674469], [121.0886935, 14.6743338], [121.0889458, 14.6743328], [121.0908153, 14.6742679], [121.0917165, 14.6741849], [121.0936048, 14.6737697], [121.0945778, 14.6735689], [121.0955746, 14.6735198], [121.096207, 14.6734708], [121.0960037, 14.6727853], [121.0958273, 14.6722472], [121.0962025, 14.6720105], [121.0961681, 14.6713712], [121.0966579, 14.6705378], [121.0984255, 14.6708564], [121.0985371, 14.6690878], [121.0985886, 14.6686975], [121.0987087, 14.6683322], [121.0989231, 14.66828]]]}, "id": "relation/1762720"}, {"type": "Feature", "properties": {"@id": "way/28723020", "admin_level": "10", "boundary": "administrative", "wikipedia": "en:Payatas", "@relations": [{"role": "outer", "rel": 1762720, "reltags": {"admin_level": "10", "boundary": "administrative", "name": "Batasan Hills", "postal_code": "1126", "ref": "137404139", "type": "boundary", "wikidata": "Q4868632", "wikipedia": "en:Batasan Hills"}}], "total_cases": 0, "color": "#cccccc"}, "geometry": {"type": "LineString", "coordinates": [[121.1115295, 14.6930258], [121.1094486, 14.6930854], [121.0993881, 14.693133], [121.098926, 14.6931229], [121.0966519, 14.6930653], [121.0963341, 14.6930445], [121.0963405, 14.6947992], [121.0961928, 14.6950639], [121.095401, 14.6958493]]}, "id": "way/28723020"}, {"type": "Feature", "properties": {"@id": "way/28723108", "admin_level": "7", "boundary": "administrative", "@relations": [{"role": "outer", "rel": 1762720, "reltags": {"admin_level": "10", "boundary": "administrative", "name": "Batasan Hills", "postal_code": "1126", "ref": "137404139", "type": "boundary", "wikidata": "Q4868632", "wikipedia": "en:Batasan Hills"}}], "total_cases": 0, "color": "#cccccc"}, "geometry": {"type": "LineString", "coordinates": [[121.0989231, 14.66828], [121.0987087, 14.6683322], [121.0985886, 14.6686975], [121.0985371, 14.6690878], [121.0984255, 14.6708564], [121.0966579, 14.6705378], [121.0961681, 14.6713712], [121.0962025, 14.6720105], [121.0958273, 14.6722472], [121.0960037, 14.6727853], [121.096207, 14.6734708], [121.0955746, 14.6735198], [121.0945778, 14.6735689], [121.0936048, 14.6737697], [121.0917165, 14.6741849], [121.0908153, 14.6742679], [121.0889458, 14.6743328], [121.0886935, 14.6743338], [121.0886771, 14.674469], [121.0886625, 14.674584], [121.0886216, 14.6757298], [121.0886673, 14.6769804], [121.0864589, 14.6770131], [121.085907, 14.6770124], [121.0849257, 14.6769853], [121.0845172, 14.6769836], [121.0832382, 14.6770204], [121.0826462, 14.6770183]]}, "id": "way/28723108"}, {"type": "Feature", "properties": {"@id": "way/51062033", "boat": "yes", "name": "Marikina River", "name:en": "Marikina River", "name:tl": "Ilog Marikina", "waterway": "river", "wikidata": "Q3551251", "wikipedia": "en:Marikina River", "@relations": [{"role": "outer", "rel": 1762720, "reltags": {"admin_level": "10", "boundary": "administrative", "name": "Batasan Hills", "postal_code": "1126", "ref": "137404139", "type": "boundary", "wikidata": "Q4868632", "wikipedia": "en:Batasan Hills"}}], "total_cases": 0, "color": "#cccccc"}, "geometry": {"type": "LineString", "coordinates": [[121.1066178, 14.6757895], [121.105877, 14.6752513], [121.1050187, 14.6744874], [121.1036883, 14.6727604], [121.103246, 14.6723195], [121.1002379, 14.6700618], [121.0993176, 14.6692092], [121.0989231, 14.66828]]}, "id": "way/51062033"}, {"type": "Feature", "properties": {"@id": "way/130995452", "boat": "yes", "name": "Marikina River", "name:tl": "Ilog Marikina", "waterway": "river", "wikidata": "Q3551251", "@relations": [{"role": "outer", "rel": 1762720, "reltags": {"admin_level": "10", "boundary": "administrative", "name": "Batasan Hills", "postal_code": "1126", "ref": "137404139", "type": "boundary", "wikidata": "Q4868632", "wikipedia": "en:Batasan Hills"}}], "total_cases": 0, "color": "#cccccc"}, "geometry": {"type": "LineString", "coordinates": [[121.1115295, 14.6930258], [121.1113873, 14.6912424], [121.1113484, 14.6894359], [121.1113444, 14.6892498], [121.1121855, 14.6852978], [121.1121169, 14.6846502], [121.1119916, 14.6844409], [121.1116706, 14.6834048], [121.1101685, 14.6808973], [121.1088846, 14.6787885], [121.1079596, 14.6772824], [121.1066178, 14.6757895]]}, "id": "way/130995452"}, {"type": "Feature", "properties": {"@id": "node/249225652", "access": "destination", "barrier": "lift_gate", "total_cases": 0, "color": "#cccccc"}, "geometry": {"type": "Point", "coordinates": [121.0886771, 14.674469]}, "id": "node/249225652"}, {"type": "Feature", "properties": {"@id": "node/8288245222", "admin_level": "10", "admin_type:PH": "barangay", "is_in:city": "Quezon City", "name": "Batasan Hills", "old_ref": "137404139", "place": "quarter", "population": "166572", "population:2015": "161409", "population:date": "2020-05-01", "postal_code": "1126", "ref": "1381300139", "@relations": [{"role": "label", "rel": 1762720, "reltags": {"admin_level": "10", "boundary": "administrative", "name": "Batasan Hills", "postal_code": "1126", "ref": "137404139", "type": "boundary", "wikidata": "Q4868632", "wikipedia": "en:Batasan Hills"}}], "total_cases": 590, "color": "#ffcc00"}, "geometry": {"type": "Point", "coordinates": [121.099335, 14.6862585]}, "id": "node/8288245222"}, {"type": "Feature", "properties": {"@id": "relation/1762721", "admin_level": "10", "boundary": "administrative", "name": "Commonwealth", "postal_code": "1121", "ref": "137404022", "type": "boundary", "total_cases": 1010, "color": "#ff0000"}, "geometry": {"type": "Polygon", "coordinates": [[[121.083089, 14.709909], [121.0827319, 14.7086933], [121.082621, 14.7083025], [121.082477, 14.7078641], [121.0823004, 14.7073802], [121.0821198, 14.7069657], [121.0818147, 14.7059143], [121.0815905, 14.7051927], [121.0815014, 14.7048893], [121.0813675, 14.704569], [121.0812002, 14.7041845], [121.080837, 14.7041825], [121.0795816, 14.704164], [121.0777782, 14.7041727], [121.0771962, 14.7041883], [121.0770465, 14.7040385], [121.0767196, 14.7038143], [121.0764196, 14.7036652], [121.0762954, 14.7036316], [121.0756248, 14.7034504], [121.0753926, 14.703369], [121.0751716, 14.7032915], [121.0749029, 14.7031676], [121.0746963, 14.7030288], [121.0741843, 14.7030437], [121.0742259, 14.7028376], [121.0742487, 14.7027871], [121.0740021, 14.7025363], [121.0737081, 14.702249], [121.0737537, 14.7021699], [121.0734353, 14.7017435], [121.0728592, 14.7006421], [121.0728041, 14.7002749], [121.0727533, 14.6999815], [121.0727274, 14.699677], [121.0726916, 14.6994613], [121.0723715, 14.6986078], [121.07174, 14.696937], [121.0714422, 14.6962263], [121.0709099, 14.6948733], [121.0701216, 14.6936084], [121.0699625, 14.6934091], [121.0696031, 14.6928864], [121.075253, 14.6933259], [121.0773019, 14.6932403], [121.0792747, 14.6932472], [121.0807457, 14.693322], [121.0860302, 14.6932916], [121.0873239, 14.6932842], [121.0928632, 14.6932789], [121.0928967, 14.693922], [121.0929047, 14.6949282], [121.0945421, 14.6965876], [121.0945856, 14.6966323], [121.0939586, 14.6971992], [121.0923053, 14.6987895], [121.0913908, 14.6997168], [121.0910747, 14.6999553], [121.0908265, 14.700101], [121.0905641, 14.7002206], [121.0901125, 14.700319], [121.089683, 14.7003204], [121.0893063, 14.7002606], [121.0888875, 14.7001514], [121.0882377, 14.6999812], [121.0878347, 14.6998756], [121.0877497, 14.6999409], [121.0878517, 14.7000567], [121.0879446, 14.7001603], [121.0880872, 14.7003187], [121.0884299, 14.7007282], [121.0885158, 14.7008171], [121.0886613, 14.7008878], [121.0891231, 14.7010617], [121.0892205, 14.7011234], [121.0892798, 14.701238], [121.0893023, 14.7013282], [121.0893156, 14.7014093], [121.0893191, 14.7014306], [121.089328, 14.7015229], [121.089351, 14.7017641], [121.089355, 14.7018396], [121.0893579, 14.7019005], [121.0893599, 14.7019963], [121.0893598, 14.7020426], [121.0893603, 14.7021353], [121.089362, 14.7022724], [121.0893621, 14.7023804], [121.0893489, 14.7025146], [121.0893315, 14.7025806], [121.0892668, 14.7027123], [121.0891752, 14.7028696], [121.089117, 14.7029694], [121.0890545, 14.7030846], [121.0889751, 14.7032301], [121.0889519, 14.7032712], [121.088917, 14.7033333], [121.0888896, 14.7033806], [121.088729, 14.7036547], [121.0886155, 14.7038624], [121.0885581, 14.7039989], [121.0885088, 14.704127], [121.0884541, 14.7043004], [121.0884169, 14.7044326], [121.0883021, 14.7049157], [121.08822, 14.7052547], [121.0881398, 14.7056096], [121.0880922, 14.7058778], [121.0880932, 14.7060099], [121.0881, 14.7060914], [121.0881116, 14.7061506], [121.0882223, 14.7063197], [121.0883329, 14.7064466], [121.0887232, 14.7068043], [121.0888375, 14.7069638], [121.0889178, 14.7071079], [121.0889315, 14.7071324], [121.0890059, 14.7072841], [121.0890453, 14.7073643], [121.0890824, 14.7074385], [121.0891248, 14.707481], [121.089173, 14.7075099], [121.0892284, 14.7075231], [121.0893762, 14.7075281], [121.0895685, 14.7075577], [121.0897098, 14.7076287], [121.0898469, 14.7077221], [121.0899289, 14.7077883], [121.0901239, 14.7079944], [121.0901656, 14.7080543], [121.0902204, 14.7081408], [121.0903137, 14.7082944], [121.090364, 14.7083773], [121.0904348, 14.7085047], [121.090456, 14.7085531], [121.0906045, 14.7088503], [121.0906691, 14.7089761], [121.0907357, 14.7091702], [121.0907465, 14.7092711], [121.0907371, 14.7096367], [121.0907377, 14.7097015], [121.0907306, 14.709957], [121.0907131, 14.710531], [121.0907082, 14.7106922], [121.0905796, 14.7108739], [121.0904498, 14.7110573], [121.0901977, 14.7114135], [121.090023, 14.7117509], [121.0898332, 14.7121533], [121.0871119, 14.7112189], [121.0869747, 14.7113735], [121.0868004, 14.7113584], [121.086672, 14.7113318], [121.0862659, 14.7112029], [121.0859762, 14.7110311], [121.0856651, 14.7109429], [121.0856973, 14.7108339], [121.0849946, 14.7105901], [121.0848906, 14.7103196], [121.0841055, 14.710054], [121.083089, 14.709909]]]}, "id": "relation/1762721"}, {"type": "Feature", "properties": {"@id": "way/28723089", "admin_level": "7", "boundary": "administrative", "@relations": [{"role": "outer", "rel": 1762721, "reltags": {"admin_level": "10", "boundary": "administrative", "name": "Commonwealth", "postal_code": "1121", "ref": "137404022", "type": "boundary"}}], "total_cases": 0, "color": "#cccccc"}, "geometry": {"type": "LineString", "coordinates": [[121.083089, 14.709909], [121.0827319, 14.7086933], [121.082621, 14.7083025], [121.082477, 14.7078641], [121.0823004, 14.7073802], [121.0821198, 14.7069657], [121.0818147, 14.7059143], [121.0815905, 14.7051927], [121.0815014, 14.7048893], [121.0813675, 14.704569], [121.0812002, 14.7041845], [121.080837, 14.7041825], [121.0795816, 14.704164], [121.0777782, 14.7041727], [121.0771962, 14.7041883], [121.0770465, 14.7040385], [121.0767196, 14.7038143], [121.0764196, 14.7036652], [121.0762954, 14.7036316], [121.0756248, 14.7034504], [121.0753926, 14.703369], [121.0751716, 14.7032915], [121.0749029, 14.7031676], [121.0746963, 14.7030288], [121.0741843, 14.7030437], [121.0742259, 14.7028376], [121.0742487, 14.7027871], [121.0740021, 14.7025363], [121.0737081, 14.702249], [121.0737537, 14.7021699], [121.0734353, 14.7017435], [121.0728592, 14.7006421], [121.0728041, 14.7002749], [121.0727533, 14.6999815], [121.0727274, 14.699677], [121.0726916, 14.6994613], [121.0723715, 14.6986078], [121.07174, 14.696937], [121.0714422, 14.6962263], [121.0709099, 14.6948733], [121.0701216, 14.6936084], [121.0699625, 14.6934091], [121.0696031, 14.6928864]]}, "id": "way/28723089"}, {"type": "Feature", "properties": {"@id": "way/28723111", "admin_level": "7", "boundary": "administrative", "@relations": [{"role": "outer", "rel": 1762721, "reltags": {"admin_level": "10", "boundary": "administrative", "name": "Commonwealth", "postal_code": "1121", "ref": "137404022", "type": "boundary"}}], "total_cases": 0, "color": "#cccccc"}, "geometry": {"type": "LineString", "coordinates": [[121.083089, 14.709909], [121.0841055, 14.710054], [121.0848906, 14.7103196], [121.0849946, 14.7105901], [121.0856973, 14.7108339], [121.0856651, 14.7109429], [121.0859762, 14.7110311], [121.0862659, 14.7112029], [121.086672, 14.7113318], [121.0868004, 14.7113584], [121.0869747, 14.7113735], [121.0871119, 14.7112189], [121.0898332, 14.7121533]]}, "id": "way/28723111"}, {"type": "Feature", "properties": {"@id": "way/138232341", "highway": "residential", "lanes": "2", "lit": "yes", "name": "Do\u00c3\u00b1a Nicasia Avenue", "oneway": "no", "sidewalk": "no", "surface": "concrete", "@relations": [{"role": "outer", "rel": 1762721, "reltags": {"admin_level": "10", "boundary": "administrative", "name": "Commonwealth", "postal_code": "1121", "ref": "137404022", "type": "boundary"}}], "total_cases": 0, "color": "#cccccc"}, "geometry": {"type": "LineString", "coordinates": [[121.0901977, 14.7114135], [121.0904498, 14.7110573], [121.0905796, 14.7108739]]}, "id": "way/138232341"}, {"type": "Feature", "properties": {"@id": "way/138232353", "designation": "national_tertiary_road", "highway": "primary", "lanes": "4", "lit": "yes", "name": "Payatas Road", "name:etymology:wikidata": "Q7156686", "name:etymology:wikipedia": "en:Payatas", "nat_name": "Payatas Road", "sidewalk": "both", "surface": "concrete", "@relations": [{"role": "outer", "rel": 1762721, "reltags": {"admin_level": "10", "boundary": "administrative", "name": "Commonwealth", "postal_code": "1121", "ref": "137404022", "type": "boundary"}}], "total_cases": 0, "color": "#cccccc"}, "geometry": {"type": "LineString", "coordinates": [[121.089362, 14.7022724], [121.0893621, 14.7023804], [121.0893489, 14.7025146], [121.0893315, 14.7025806], [121.0892668, 14.7027123], [121.0891752, 14.7028696], [121.089117, 14.7029694], [121.0890545, 14.7030846], [121.0889751, 14.7032301], [121.0889519, 14.7032712], [121.088917, 14.7033333], [121.0888896, 14.7033806], [121.088729, 14.7036547], [121.0886155, 14.7038624], [121.0885581, 14.7039989], [121.0885088, 14.704127], [121.0884541, 14.7043004], [121.0884169, 14.7044326], [121.0883021, 14.7049157], [121.08822, 14.7052547], [121.0881398, 14.7056096], [121.0880922, 14.7058778]]}, "id": "way/138232353"}, {"type": "Feature", "properties": {"@id": "way/252721984", "designation": "national_tertiary_road", "highway": "primary", "incline": "inclined_up_to_reservoir", "lanes": "4", "lit": "yes", "name": "Payatas Road", "name:etymology:wikidata": "Q7156686", "name:etymology:wikipedia": "en:Payatas", "nat_name": "Payatas Road", "sidewalk": "both", "surface": "concrete", "@relations": [{"role": "outer", "rel": 1762721, "reltags": {"admin_level": "10", "boundary": "administrative", "name": "Commonwealth", "postal_code": "1121", "ref": "137404022", "type": "boundary"}}], "total_cases": 0, "color": "#cccccc"}, "geometry": {"type": "LineString", "coordinates": [[121.0898469, 14.7077221], [121.0899289, 14.7077883], [121.0901239, 14.7079944], [121.0901656, 14.7080543], [121.0902204, 14.7081408], [121.0903137, 14.7082944], [121.090364, 14.7083773], [121.0904348, 14.7085047], [121.090456, 14.7085531], [121.0906045, 14.7088503], [121.0906691, 14.7089761], [121.0907357, 14.7091702], [121.0907465, 14.7092711], [121.0907371, 14.7096367], [121.0907377, 14.7097015], [121.0907306, 14.709957], [121.0907131, 14.710531], [121.0907082, 14.7106922]]}, "id": "way/252721984"}, {"type": "Feature", "properties": {"@id": "way/252721985", "bridge": "yes", "designation": "national_tertiary_road", "highway": "primary", "lanes": "4", "layer": "1", "lit": "yes", "name": "Payatas Road", "name:etymology:wikidata": "Q7156686", "name:etymology:wikipedia": "en:Payatas", "nat_name": "Payatas Road", "surface": "concrete", "@relations": [{"role": "outer", "rel": 1762721, "reltags": {"admin_level": "10", "boundary": "administrative", "name": "Commonwealth", "postal_code": "1121", "ref": "137404022", "type": "boundary"}}], "total_cases": 0, "color": "#cccccc"}, "geometry": {"type": "LineString", "coordinates": [[121.0897098, 14.7076287], [121.0898469, 14.7077221]]}, "id": "way/252721985"}, {"type": "Feature", "properties": {"@id": "way/348451277", "designation": "national_tertiary_road", "highway": "primary", "lanes": "4", "lit": "yes", "name": "Payatas Road", "name:etymology:wikidata": "Q7156686", "name:etymology:wikipedia": "en:Payatas", "nat_name": "Payatas Road", "sidewalk": "both", "surface": "concrete", "@relations": [{"role": "outer", "rel": 1762721, "reltags": {"admin_level": "10", "boundary": "administrative", "name": "Commonwealth", "postal_code": "1121", "ref": "137404022", "type": "boundary"}}], "total_cases": 0, "color": "#cccccc"}, "geometry": {"type": "LineString", "coordinates": [[121.0883329, 14.7064466], [121.0887232, 14.7068043], [121.0888375, 14.7069638], [121.0889178, 14.7071079], [121.0889315, 14.7071324], [121.0890059, 14.7072841], [121.0890453, 14.7073643], [121.0890824, 14.7074385], [121.0891248, 14.707481], [121.089173, 14.7075099], [121.0892284, 14.7075231]]}, "id": "way/348451277"}, {"type": "Feature", "properties": {"@id": "way/880371469", "designation": "national_tertiary_road", "fine:foot": "1,000 PHP", "foot": "use_sidepath", "highway": "primary", "lanes": "3", "lit": "yes", "name": "Payatas Road", "name:etymology:wikidata": "Q7156686", "name:etymology:wikipedia": "en:Payatas", "nat_name": "Payatas Road", "oneway": "yes", "oneway:bicycle": "yes", "parking:both": "no", "parking:both:restriction": "no_stopping", "sidewalk": "separate", "surface": "concrete", "turn:lanes": "right|right|right", "@relations": [{"role": "outer", "rel": 1762721, "reltags": {"admin_level": "10", "boundary": "administrative", "name": "Commonwealth", "postal_code": "1121", "ref": "137404022", "type": "boundary"}}], "total_cases": 0, "color": "#cccccc"}, "geometry": {"type": "LineString", "coordinates": [[121.0880872, 14.7003187], [121.0879446, 14.7001603], [121.0878517, 14.7000567], [121.0877497, 14.6999409]]}, "id": "way/880371469"}, {"type": "Feature", "properties": {"@id": "way/1057629921", "designation": "national_tertiary_road", "highway": "primary", "lanes": "2", "lit": "yes", "name": "Payatas Road", "name:etymology:wikidata": "Q7156686", "name:etymology:wikipedia": "en:Payatas", "nat_name": "Payatas Road", "sidewalk": "both", "surface": "concrete", "@relations": [{"role": "outer", "rel": 1762721, "reltags": {"admin_level": "10", "boundary": "administrative", "name": "Commonwealth", "postal_code": "1121", "ref": "137404022", "type": "boundary"}}], "total_cases": 0, "color": "#cccccc"}, "geometry": {"type": "LineString", "coordinates": [[121.0880922, 14.7058778], [121.0880932, 14.7060099], [121.0881, 14.7060914], [121.0881116, 14.7061506], [121.0882223, 14.7063197], [121.0883329, 14.7064466]]}, "id": "way/1057629921"}, {"type": "Feature", "properties": {"@id": "way/1057646044", "designation": "national_tertiary_road", "highway": "primary", "lanes": "4", "lit": "yes", "name": "Payatas Road", "name:etymology:wikidata": "Q7156686", "name:etymology:wikipedia": "en:Payatas", "nat_name": "Payatas Road", "sidewalk": "both", "surface": "concrete", "@relations": [{"role": "outer", "rel": 1762721, "reltags": {"admin_level": "10", "boundary": "administrative", "name": "Commonwealth", "postal_code": "1121", "ref": "137404022", "type": "boundary"}}], "total_cases": 0, "color": "#cccccc"}, "geometry": {"type": "LineString", "coordinates": [[121.0892284, 14.7075231], [121.0893762, 14.7075281], [121.0895685, 14.7075577], [121.0897098, 14.7076287]]}, "id": "way/1057646044"}, {"type": "Feature", "properties": {"@id": "way/1414059127", "designation": "national_tertiary_road", "highway": "primary", "lanes": "4", "lit": "yes", "name": "Payatas Road", "name:etymology:wikidata": "Q7156686", "name:etymology:wikipedia": "en:Payatas", "nat_name": "Payatas Road", "oneway": "yes", "oneway:bicycle": "yes", "parking:both": "no", "parking:both:restriction": "no_stopping", "sidewalk": "both", "surface": "concrete", "@relations": [{"role": "outer", "rel": 1762721, "reltags": {"admin_level": "10", "boundary": "administrative", "name": "Commonwealth", "postal_code": "1121", "ref": "137404022", "type": "boundary"}}], "total_cases": 0, "color": "#cccccc"}, "geometry": {"type": "LineString", "coordinates": [[121.089362, 14.7022724], [121.0893603, 14.7021353], [121.0893598, 14.7020426], [121.0893599, 14.7019963], [121.0893579, 14.7019005], [121.089355, 14.7018396], [121.089351, 14.7017641], [121.089328, 14.7015229], [121.0893191, 14.7014306], [121.0893156, 14.7014093], [121.0893023, 14.7013282], [121.0892798, 14.701238], [121.0892205, 14.7011234], [121.0891231, 14.7010617], [121.0886613, 14.7008878], [121.0885158, 14.7008171], [121.0884299, 14.7007282], [121.0880872, 14.7003187]]}, "id": "way/1414059127"}, {"type": "Feature", "properties": {"@id": "node/24623934", "highway": "give_way", "total_cases": 0, "color": "#cccccc"}, "geometry": {"type": "Point", "coordinates": [121.0878517, 14.7000567]}, "id": "node/24623934"}, {"type": "Feature", "properties": {"@id": "node/251001933", "admin_level": "10", "admin_type:PH": "barangay", "name": "Commonwealth", "place": "quarter", "postal_code": "1121", "ref": "137404022", "@relations": [{"role": "label", "rel": 1762721, "reltags": {"admin_level": "10", "boundary": "administrative", "name": "Commonwealth", "postal_code": "1121", "ref": "137404022", "type": "boundary"}}], "total_cases": 1010, "color": "#ff0000"}, "geometry": {"type": "Point", "coordinates": [121.0823853, 14.698447]}, "id": "node/251001933"}, {"type": "Feature", "properties": {"@id": "node/5021888224", "crossing": "uncontrolled", "crossing:markings": "zebra", "highway": "crossing", "kerb": "yes", "tactile_paving": "no", "wheelchair": "yes", "total_cases": 0, "color": "#cccccc"}, "geometry": {"type": "Point", "coordinates": [121.0879446, 14.7001603]}, "id": "node/5021888224"}, {"type": "Feature", "properties": {"@id": "node/8188560933", "highway": "motorway_junction", "total_cases": 0, "color": "#cccccc"}, "geometry": {"type": "Point", "coordinates": [121.0880872, 14.7003187]}, "id": "node/8188560933"}, {"type": "Feature", "properties": {"@id": "relation/1762722", "admin_level": "10", "boundary": "administrative", "name": "Holy Spirit", "ref": "137404140", "type": "boundary", "total_cases": 579, "color": "#ffcc00"}, "geometry": {"type": "Polygon", "coordinates": [[[121.0858473, 14.684137], [121.0866219, 14.6859341], [121.0870275, 14.687179], [121.08716, 14.6878519], [121.0872209, 14.6883636], [121.0872502, 14.688873], [121.0872726, 14.6898929], [121.0873239, 14.6932842], [121.0860302, 14.6932916], [121.0807457, 14.693322], [121.0792747, 14.6932472], [121.0773019, 14.6932403], [121.075253, 14.6933259], [121.0696031, 14.6928864], [121.06956, 14.6892063], [121.069509, 14.6853702], [121.0693374, 14.6832945], [121.0691979, 14.6804404], [121.069112, 14.6792157], [121.069104, 14.6770569], [121.0697361, 14.6768647], [121.0737668, 14.676866], [121.0756914, 14.6770828], [121.0764478, 14.6770967], [121.0767569, 14.6770917], [121.077117, 14.6770912], [121.0772267, 14.6770922], [121.0772818, 14.6770923], [121.0777574, 14.6770899], [121.0782255, 14.6770953], [121.0782268, 14.6767983], [121.0782261, 14.6764477], [121.0782311, 14.6759741], [121.0782267, 14.6757839], [121.0782276, 14.6757453], [121.0782275, 14.6755176], [121.0782275, 14.6753431], [121.0782275, 14.6752094], [121.0782275, 14.6749415], [121.0782275, 14.6748306], [121.0782275, 14.6746955], [121.0782275, 14.6745815], [121.0782275, 14.6744151], [121.0782275, 14.6741468], [121.0782268, 14.6740891], [121.0782275, 14.6739919], [121.0782275, 14.6738718], [121.0782275, 14.6737986], [121.0782274, 14.6733399], [121.0782274, 14.6732038], [121.0782274, 14.6728814], [121.0782274, 14.6727704], [121.0782274, 14.6724143], [121.0782274, 14.6718461], [121.0785627, 14.6714782], [121.0792894, 14.6722396], [121.0798372, 14.6728962], [121.0815828, 14.6752183], [121.0818235, 14.6755709], [121.0826462, 14.6770183], [121.0829164, 14.6775036], [121.0830891, 14.6778204], [121.0838333, 14.6794392], [121.0858473, 14.684137]]]}, "id": "relation/1762722"}, {"type": "Feature", "properties": {"@id": "way/13751266", "alt_name": "North Zuzuarregui", "highway": "residential", "lanes": "2", "name": "Zuzuarregui Street", "@relations": [{"role": "outer", "rel": 1762722, "reltags": {"admin_level": "10", "boundary": "administrative", "name": "Holy Spirit", "ref": "137404140", "type": "boundary"}}], "total_cases": 0, "color": "#cccccc"}, "geometry": {"type": "LineString", "coordinates": [[121.0782274, 14.6718461], [121.0782274, 14.6724143], [121.0782274, 14.6727704], [121.0782274, 14.6728814], [121.0782274, 14.6732038], [121.0782274, 14.6733399], [121.0782275, 14.6737986], [121.0782275, 14.6738718], [121.0782275, 14.6739919], [121.0782268, 14.6740891], [121.0782275, 14.6741468], [121.0782275, 14.6744151], [121.0782275, 14.6745815], [121.0782275, 14.6746955], [121.0782275, 14.6748306], [121.0782275, 14.6749415], [121.0782275, 14.6752094], [121.0782275, 14.6753431], [121.0782275, 14.6755176], [121.0782276, 14.6757453]]}, "id": "way/13751266"}, {"type": "Feature", "properties": {"@id": "way/28722807", "admin_level": "7", "boundary": "administrative", "@relations": [{"role": "outer", "rel": 1762722, "reltags": {"admin_level": "10", "boundary": "administrative", "name": "Holy Spirit", "ref": "137404140", "type": "boundary"}}], "total_cases": 0, "color": "#cccccc"}, "geometry": {"type": "LineString", "coordinates": [[121.0764478, 14.6770967], [121.0756914, 14.6770828], [121.0737668, 14.676866], [121.0697361, 14.6768647], [121.069104, 14.6770569]]}, "id": "way/28722807"}, {"type": "Feature", "properties": {"@id": "way/28723118", "admin_level": "7", "boundary": "administrative", "@relations": [{"role": "outer", "rel": 1762722, "reltags": {"admin_level": "10", "boundary": "administrative", "name": "Holy Spirit", "ref": "137404140", "type": "boundary"}}], "total_cases": 0, "color": "#cccccc"}, "geometry": {"type": "LineString", "coordinates": [[121.0696031, 14.6928864], [121.06956, 14.6892063], [121.069509, 14.6853702], [121.0693374, 14.6832945], [121.0691979, 14.6804404], [121.069112, 14.6792157], [121.069104, 14.6770569]]}, "id": "way/28723118"}, {"type": "Feature", "properties": {"@id": "way/797374096", "highway": "residential", "lanes": "2", "name": "Don Vicente Street", "@relations": [{"role": "outer", "rel": 1762722, "reltags": {"admin_level": "10", "boundary": "administrative", "name": "Holy Spirit", "ref": "137404140", "type": "boundary"}}], "total_cases": 0, "color": "#cccccc"}, "geometry": {"type": "LineString", "coordinates": [[121.0782255, 14.6770953], [121.0777574, 14.6770899], [121.0772818, 14.6770923], [121.0772267, 14.6770922], [121.077117, 14.6770912], [121.0767569, 14.6770917], [121.0764478, 14.6770967]]}, "id": "way/797374096"}, {"type": "Feature", "properties": {"@id": "way/797374099", "admin_level": "7", "boundary": "administrative", "@relations": [{"role": "outer", "rel": 1762722, "reltags": {"admin_level": "10", "boundary": "administrative", "name": "Holy Spirit", "ref": "137404140", "type": "boundary"}}], "total_cases": 0, "color": "#cccccc"}, "geometry": {"type": "LineString", "coordinates": [[121.0826462, 14.6770183], [121.0818235, 14.6755709], [121.0815828, 14.6752183], [121.0798372, 14.6728962], [121.0792894, 14.6722396], [121.0785627, 14.6714782], [121.0782274, 14.6718461]]}, "id": "way/797374099"}, {"type": "Feature", "properties": {"@id": "way/1060836383", "access": "destination", "alt_name": "North Zuzuarregui", "highway": "residential", "lanes": "2", "name": "Zuzuarregui Street", "width": "6", "@relations": [{"role": "outer", "rel": 1762722, "reltags": {"admin_level": "10", "boundary": "administrative", "name": "Holy Spirit", "ref": "137404140", "type": "boundary"}}], "total_cases": 0, "color": "#cccccc"}, "geometry": {"type": "LineString", "coordinates": [[121.0782267, 14.6757839], [121.0782311, 14.6759741], [121.0782261, 14.6764477], [121.0782268, 14.6767983], [121.0782255, 14.6770953]]}, "id": "way/1060836383"}, {"type": "Feature", "properties": {"@id": "way/1307608159", "alt_name": "North Zuzuarregui", "highway": "residential", "lanes": "2", "name": "Zuzuarregui Street", "width": "6", "@relations": [{"role": "outer", "rel": 1762722, "reltags": {"admin_level": "10", "boundary": "administrative", "name": "Holy Spirit", "ref": "137404140", "type": "boundary"}}], "total_cases": 0, "color": "#cccccc"}, "geometry": {"type": "LineString", "coordinates": [[121.0782276, 14.6757453], [121.0782267, 14.6757839]]}, "id": "way/1307608159"}, {"type": "Feature", "properties": {"@id": "node/251004920", "admin_level": "10", "admin_type:PH": "barangay", "is_in:city": "Quezon City", "name": "Holy Spirit", "old_ref": "137404140", "place": "quarter", "population": "111901", "population:date": "2020-05-01", "postal_code": "1127", "ref": "1381300140", "@relations": [{"role": "admin_centre", "rel": 1762722, "reltags": {"admin_level": "10", "boundary": "administrative", "name": "Holy Spirit", "ref": "137404140", "type": "boundary"}}], "total_cases": 579, "color": "#ffcc00"}, "geometry": {"type": "Point", "coordinates": [121.0761031, 14.6838626]}, "id": "node/251004920"}, {"type": "Feature", "properties": {"@id": "node/8645966042", "access": "destination", "barrier": "gate", "total_cases": 0, "color": "#cccccc"}, "geometry": {"type": "Point", "coordinates": [121.0782267, 14.6757839]}, "id": "node/8645966042"}, {"type": "Feature", "properties": {"@id": "relation/1762723", "admin_level": "10", "boundary": "administrative", "name": "Payatas", "postal_code": "1119", "ref": "137404138", "type": "boundary", "wikidata": "Q7156686", "wikipedia": "en:Payatas", "total_cases": 762, "color": "#ff9900"}, "geometry": {"type": "Polygon", "coordinates": [[[121.095401, 14.6958493], [121.0957326, 14.6962161], [121.0959843, 14.6964463], [121.0963771, 14.6968231], [121.0968498, 14.6972356], [121.0971743, 14.6978884], [121.0972387, 14.6979588], [121.0988205, 14.6997491], [121.0999442, 14.7005952], [121.1003961, 14.704584], [121.1062072, 14.7114827], [121.1065893, 14.7117137], [121.10814, 14.7121021], [121.1105084, 14.7131772], [121.111825, 14.7138232], [121.1116552, 14.7215613], [121.1113882, 14.721543], [121.1113583, 14.7215419], [121.111293, 14.7215402], [121.110597, 14.7215218], [121.1105052, 14.721522], [121.1104341, 14.7215259], [121.1103484, 14.7215375], [121.110296, 14.7215493], [121.110245, 14.7215622], [121.1101721, 14.7215869], [121.1101203, 14.7216089], [121.1100559, 14.7216439], [121.1099871, 14.7216874], [121.1098627, 14.7217729], [121.1094055, 14.7221096], [121.1093629, 14.7221439], [121.1093105, 14.7221795], [121.1092713, 14.7221991], [121.1092325, 14.7222173], [121.10916, 14.7222484], [121.1090166, 14.7223019], [121.1083711, 14.7225699], [121.1083259, 14.7225973], [121.1081025, 14.7227345], [121.1077271, 14.7229663], [121.1075681, 14.7230461], [121.1075185, 14.7230681], [121.1074553, 14.7230902], [121.1073683, 14.7231174], [121.1073013, 14.723133], [121.1072342, 14.7231434], [121.1071575, 14.7231494], [121.1065851, 14.7231563], [121.1064966, 14.7231589], [121.1064094, 14.7231719], [121.1063198, 14.7231913], [121.1062472, 14.7232095], [121.1056454, 14.7234122], [121.1055726, 14.7234326], [121.1054774, 14.7234495], [121.1053983, 14.723455], [121.1053352, 14.7234534], [121.1052601, 14.7234456], [121.1051826, 14.7234301], [121.1050871, 14.7234067], [121.1050294, 14.7233859], [121.1049691, 14.7233626], [121.1048377, 14.7233016], [121.1047246, 14.723242], [121.1045922, 14.7231667], [121.1043428, 14.7230175], [121.1038139, 14.7226969], [121.1033142, 14.7223742], [121.1030084, 14.7221639], [121.1026396, 14.7219098], [121.1025779, 14.7218631], [121.1025256, 14.721819], [121.1024726, 14.7217639], [121.1024424, 14.7217308], [121.1024076, 14.7216867], [121.1023687, 14.7216349], [121.1020748, 14.7212032], [121.1017811, 14.7208131], [121.101737, 14.7207645], [121.1016941, 14.720723], [121.1016311, 14.7206737], [121.1015709, 14.7206344], [121.1013226, 14.7206309], [121.1009914, 14.7205985], [121.1009136, 14.7205998], [121.1008304, 14.7205959], [121.1007567, 14.7205829], [121.1006869, 14.7205609], [121.1006306, 14.7205285], [121.1005819, 14.72049], [121.1003833, 14.7205685], [121.0999633, 14.7203541], [121.0998313, 14.7202146], [121.0997401, 14.7195775], [121.0997587, 14.719452], [121.0998519, 14.7193651], [121.1002199, 14.71918], [121.1004862, 14.7190008], [121.1006743, 14.7188767], [121.100813, 14.7185828], [121.1008827, 14.7182699], [121.1008961, 14.7180341], [121.10088, 14.7178227], [121.1007741, 14.7174868], [121.1007377, 14.7174131], [121.100693, 14.717359], [121.1004393, 14.7170826], [121.1000428, 14.7167114], [121.0995045, 14.7162059], [121.0990641, 14.7157933], [121.0980434, 14.7149773], [121.0978676, 14.7149127], [121.097137, 14.7149418], [121.096559, 14.7148925], [121.0958203, 14.7147612], [121.0953252, 14.7143561], [121.094827, 14.7139352], [121.0945906, 14.7138238], [121.0941804, 14.7139915], [121.0932525, 14.7143958], [121.0921454, 14.7144891], [121.090817, 14.7144285], [121.0901574, 14.7143061], [121.0901365, 14.7136356], [121.0903031, 14.7123972], [121.0898332, 14.7121533], [121.090023, 14.7117509], [121.0901977, 14.7114135], [121.0904498, 14.7110573], [121.0905796, 14.7108739], [121.0907082, 14.7106922], [121.0907131, 14.710531], [121.0907306, 14.709957], [121.0907377, 14.7097015], [121.0907371, 14.7096367], [121.0907465, 14.7092711], [121.0907357, 14.7091702], [121.0906691, 14.7089761], [121.0906045, 14.7088503], [121.090456, 14.7085531], [121.0904348, 14.7085047], [121.090364, 14.7083773], [121.0903137, 14.7082944], [121.0902204, 14.7081408], [121.0901656, 14.7080543], [121.0901239, 14.7079944], [121.0899289, 14.7077883], [121.0898469, 14.7077221], [121.0897098, 14.7076287], [121.0895685, 14.7075577], [121.0893762, 14.7075281], [121.0892284, 14.7075231], [121.089173, 14.7075099], [121.0891248, 14.707481], [121.0890824, 14.7074385], [121.0890453, 14.7073643], [121.0890059, 14.7072841], [121.0889315, 14.7071324], [121.0889178, 14.7071079], [121.0888375, 14.7069638], [121.0887232, 14.7068043], [121.0883329, 14.7064466], [121.0882223, 14.7063197], [121.0881116, 14.7061506], [121.0881, 14.7060914], [121.0880932, 14.7060099], [121.0880922, 14.7058778], [121.0881398, 14.7056096], [121.08822, 14.7052547], [121.0883021, 14.7049157], [121.0884169, 14.7044326], [121.0884541, 14.7043004], [121.0885088, 14.704127], [121.0885581, 14.7039989], [121.0886155, 14.7038624], [121.088729, 14.7036547], [121.0888896, 14.7033806], [121.088917, 14.7033333], [121.0889519, 14.7032712], [121.0889751, 14.7032301], [121.0890545, 14.7030846], [121.089117, 14.7029694], [121.0891752, 14.7028696], [121.0892668, 14.7027123], [121.0893315, 14.7025806], [121.0893489, 14.7025146], [121.0893621, 14.7023804], [121.089362, 14.7022724], [121.0893603, 14.7021353], [121.0893598, 14.7020426], [121.0893599, 14.7019963], [121.0893579, 14.7019005], [121.089355, 14.7018396], [121.089351, 14.7017641], [121.089328, 14.7015229], [121.0893191, 14.7014306], [121.0893156, 14.7014093], [121.0893023, 14.7013282], [121.0892798, 14.701238], [121.0892205, 14.7011234], [121.0891231, 14.7010617], [121.0886613, 14.7008878], [121.0885158, 14.7008171], [121.0884299, 14.7007282], [121.0880872, 14.7003187], [121.0879446, 14.7001603], [121.0878517, 14.7000567], [121.0877497, 14.6999409], [121.0878347, 14.6998756], [121.0882377, 14.6999812], [121.0888875, 14.7001514], [121.0893063, 14.7002606], [121.089683, 14.7003204], [121.0901125, 14.700319], [121.0905641, 14.7002206], [121.0908265, 14.700101], [121.0910747, 14.6999553], [121.0913908, 14.6997168], [121.0923053, 14.6987895], [121.0939586, 14.6971992], [121.0945856, 14.6966323], [121.095401, 14.6958493]]]}, "id": "relation/1762723"}, {"type": "Feature", "properties": {"@id": "way/28723016", "admin_level": "7", "boundary": "administrative", "@relations": [{"role": "outer", "rel": 1762723, "reltags": {"admin_level": "10", "boundary": "administrative", "name": "Payatas", "postal_code": "1119", "ref": "137404138", "type": "boundary", "wikidata": "Q7156686", "wikipedia": "en:Payatas"}}], "total_cases": 0, "color": "#cccccc"}, "geometry": {"type": "LineString", "coordinates": [[121.1006743, 14.7188767], [121.1004862, 14.7190008]]}, "id": "way/28723016"}, {"type": "Feature", "properties": {"@id": "way/138232341", "highway": "residential", "lanes": "2", "lit": "yes", "name": "Do\u00c3\u00b1a Nicasia Avenue", "oneway": "no", "sidewalk": "no", "surface": "concrete", "@relations": [{"role": "outer", "rel": 1762723, "reltags": {"admin_level": "10", "boundary": "administrative", "name": "Payatas", "postal_code": "1119", "ref": "137404138", "type": "boundary", "wikidata": "Q7156686", "wikipedia": "en:Payatas"}}], "total_cases": 0, "color": "#cccccc"}, "geometry": {"type": "LineString", "coordinates": [[121.0901977, 14.7114135], [121.0904498, 14.7110573], [121.0905796, 14.7108739]]}, "id": "way/138232341"}, {"type": "Feature", "properties": {"@id": "way/138232353", "designation": "national_tertiary_road", "highway": "primary", "lanes": "4", "lit": "yes", "name": "Payatas Road", "name:etymology:wikidata": "Q7156686", "name:etymology:wikipedia": "en:Payatas", "nat_name": "Payatas Road", "sidewalk": "both", "surface": "concrete", "@relations": [{"role": "outer", "rel": 1762723, "reltags": {"admin_level": "10", "boundary": "administrative", "name": "Payatas", "postal_code": "1119", "ref": "137404138", "type": "boundary", "wikidata": "Q7156686", "wikipedia": "en:Payatas"}}], "total_cases": 0, "color": "#cccccc"}, "geometry": {"type": "LineString", "coordinates": [[121.089362, 14.7022724], [121.0893621, 14.7023804], [121.0893489, 14.7025146], [121.0893315, 14.7025806], [121.0892668, 14.7027123], [121.0891752, 14.7028696], [121.089117, 14.7029694], [121.0890545, 14.7030846], [121.0889751, 14.7032301], [121.0889519, 14.7032712], [121.088917, 14.7033333], [121.0888896, 14.7033806], [121.088729, 14.7036547], [121.0886155, 14.7038624], [121.0885581, 14.7039989], [121.0885088, 14.704127], [121.0884541, 14.7043004], [121.0884169, 14.7044326], [121.0883021, 14.7049157], [121.08822, 14.7052547], [121.0881398, 14.7056096], [121.0880922, 14.7058778]]}, "id": "way/138232353"}, {"type": "Feature", "properties": {"@id": "way/186255465", "admin_level": "7", "boundary": "administrative", "@relations": [{"role": "outer", "rel": 1762723, "reltags": {"admin_level": "10", "boundary": "administrative", "name": "Payatas", "postal_code": "1119", "ref": "137404138", "type": "boundary", "wikidata": "Q7156686", "wikipedia": "en:Payatas"}}], "total_cases": 0, "color": "#cccccc"}, "geometry": {"type": "LineString", "coordinates": [[121.1005819, 14.72049], [121.1006306, 14.7205285], [121.1006869, 14.7205609], [121.1007567, 14.7205829], [121.1008304, 14.7205959], [121.1009136, 14.7205998], [121.1009914, 14.7205985], [121.1013226, 14.7206309], [121.1015709, 14.7206344], [121.1016311, 14.7206737], [121.1016941, 14.720723], [121.101737, 14.7207645], [121.1017811, 14.7208131], [121.1020748, 14.7212032], [121.1023687, 14.7216349], [121.1024076, 14.7216867], [121.1024424, 14.7217308], [121.1024726, 14.7217639], [121.1025256, 14.721819], [121.1025779, 14.7218631], [121.1026396, 14.7219098], [121.1030084, 14.7221639], [121.1033142, 14.7223742], [121.1038139, 14.7226969], [121.1043428, 14.7230175], [121.1045922, 14.7231667], [121.1047246, 14.723242], [121.1048377, 14.7233016], [121.1049691, 14.7233626], [121.1050294, 14.7233859], [121.1050871, 14.7234067], [121.1051826, 14.7234301], [121.1052601, 14.7234456], [121.1053352, 14.7234534], [121.1053983, 14.723455], [121.1054774, 14.7234495], [121.1055726, 14.7234326], [121.1056454, 14.7234122], [121.1062472, 14.7232095], [121.1063198, 14.7231913], [121.1064094, 14.7231719], [121.1064966, 14.7231589], [121.1065851, 14.7231563], [121.1071575, 14.7231494], [121.1072342, 14.7231434], [121.1073013, 14.723133], [121.1073683, 14.7231174], [121.1074553, 14.7230902], [121.1075185, 14.7230681], [121.1075681, 14.7230461], [121.1077271, 14.7229663], [121.1081025, 14.7227345], [121.1083259, 14.7225973], [121.1083711, 14.7225699], [121.1090166, 14.7223019], [121.10916, 14.7222484], [121.1092325, 14.7222173], [121.1092713, 14.7221991], [121.1093105, 14.7221795], [121.1093629, 14.7221439], [121.1094055, 14.7221096], [121.1098627, 14.7217729], [121.1099871, 14.7216874], [121.1100559, 14.7216439], [121.1101203, 14.7216089], [121.1101721, 14.7215869], [121.110245, 14.7215622], [121.110296, 14.7215493], [121.1103484, 14.7215375], [121.1104341, 14.7215259], [121.1105052, 14.721522], [121.110597, 14.7215218], [121.111293, 14.7215402], [121.1113583, 14.7215419], [121.1113882, 14.721543], [121.1116552, 14.7215613]]}, "id": "way/186255465"}, {"type": "Feature", "properties": {"@id": "way/186255474", "admin_level": "7", "boundary": "administrative", "@relations": [{"role": "outer", "rel": 1762723, "reltags": {"admin_level": "10", "boundary": "administrative", "name": "Payatas", "postal_code": "1119", "ref": "137404138", "type": "boundary", "wikidata": "Q7156686", "wikipedia": "en:Payatas"}}], "total_cases": 0, "color": "#cccccc"}, "geometry": {"type": "LineString", "coordinates": [[121.1004862, 14.7190008], [121.1002199, 14.71918], [121.0998519, 14.7193651], [121.0997587, 14.719452], [121.0997401, 14.7195775], [121.0998313, 14.7202146], [121.0999633, 14.7203541], [121.1003833, 14.7205685]]}, "id": "way/186255474"}, {"type": "Feature", "properties": {"@id": "way/252721984", "designation": "national_tertiary_road", "highway": "primary", "incline": "inclined_up_to_reservoir", "lanes": "4", "lit": "yes", "name": "Payatas Road", "name:etymology:wikidata": "Q7156686", "name:etymology:wikipedia": "en:Payatas", "nat_name": "Payatas Road", "sidewalk": "both", "surface": "concrete", "@relations": [{"role": "outer", "rel": 1762723, "reltags": {"admin_level": "10", "boundary": "administrative", "name": "Payatas", "postal_code": "1119", "ref": "137404138", "type": "boundary", "wikidata": "Q7156686", "wikipedia": "en:Payatas"}}], "total_cases": 0, "color": "#cccccc"}, "geometry": {"type": "LineString", "coordinates": [[121.0898469, 14.7077221], [121.0899289, 14.7077883], [121.0901239, 14.7079944], [121.0901656, 14.7080543], [121.0902204, 14.7081408], [121.0903137, 14.7082944], [121.090364, 14.7083773], [121.0904348, 14.7085047], [121.090456, 14.7085531], [121.0906045, 14.7088503], [121.0906691, 14.7089761], [121.0907357, 14.7091702], [121.0907465, 14.7092711], [121.0907371, 14.7096367], [121.0907377, 14.7097015], [121.0907306, 14.709957], [121.0907131, 14.710531], [121.0907082, 14.7106922]]}, "id": "way/252721984"}, {"type": "Feature", "properties": {"@id": "way/252721985", "bridge": "yes", "designation": "national_tertiary_road", "highway": "primary", "lanes": "4", "layer": "1", "lit": "yes", "name": "Payatas Road", "name:etymology:wikidata": "Q7156686", "name:etymology:wikipedia": "en:Payatas", "nat_name": "Payatas Road", "surface": "concrete", "@relations": [{"role": "outer", "rel": 1762723, "reltags": {"admin_level": "10", "boundary": "administrative", "name": "Payatas", "postal_code": "1119", "ref": "137404138", "type": "boundary", "wikidata": "Q7156686", "wikipedia": "en:Payatas"}}], "total_cases": 0, "color": "#cccccc"}, "geometry": {"type": "LineString", "coordinates": [[121.0897098, 14.7076287], [121.0898469, 14.7077221]]}, "id": "way/252721985"}, {"type": "Feature", "properties": {"@id": "way/348451277", "designation": "national_tertiary_road", "highway": "primary", "lanes": "4", "lit": "yes", "name": "Payatas Road", "name:etymology:wikidata": "Q7156686", "name:etymology:wikipedia": "en:Payatas", "nat_name": "Payatas Road", "sidewalk": "both", "surface": "concrete", "@relations": [{"role": "outer", "rel": 1762723, "reltags": {"admin_level": "10", "boundary": "administrative", "name": "Payatas", "postal_code": "1119", "ref": "137404138", "type": "boundary", "wikidata": "Q7156686", "wikipedia": "en:Payatas"}}], "total_cases": 0, "color": "#cccccc"}, "geometry": {"type": "LineString", "coordinates": [[121.0883329, 14.7064466], [121.0887232, 14.7068043], [121.0888375, 14.7069638], [121.0889178, 14.7071079], [121.0889315, 14.7071324], [121.0890059, 14.7072841], [121.0890453, 14.7073643], [121.0890824, 14.7074385], [121.0891248, 14.707481], [121.089173, 14.7075099], [121.0892284, 14.7075231]]}, "id": "way/348451277"}, {"type": "Feature", "properties": {"@id": "way/592888169", "admin_level": "7", "boundary": "administrative", "@relations": [{"role": "outer", "rel": 1762723, "reltags": {"admin_level": "10", "boundary": "administrative", "name": "Payatas", "postal_code": "1119", "ref": "137404138", "type": "boundary", "wikidata": "Q7156686", "wikipedia": "en:Payatas"}}], "total_cases": 0, "color": "#cccccc"}, "geometry": {"type": "LineString", "coordinates": [[121.0990641, 14.7157933], [121.0995045, 14.7162059], [121.1000428, 14.7167114], [121.1004393, 14.7170826], [121.100693, 14.717359], [121.1007377, 14.7174131], [121.1007741, 14.7174868]]}, "id": "way/592888169"}, {"type": "Feature", "properties": {"@id": "way/592888171", "admin_level": "7", "boundary": "administrative", "@relations": [{"role": "outer", "rel": 1762723, "reltags": {"admin_level": "10", "boundary": "administrative", "name": "Payatas", "postal_code": "1119", "ref": "137404138", "type": "boundary", "wikidata": "Q7156686", "wikipedia": "en:Payatas"}}], "total_cases": 0, "color": "#cccccc"}, "geometry": {"type": "LineString", "coordinates": [[121.0898332, 14.7121533], [121.0903031, 14.7123972], [121.0901365, 14.7136356], [121.0901574, 14.7143061], [121.090817, 14.7144285], [121.0921454, 14.7144891], [121.0932525, 14.7143958], [121.0941804, 14.7139915], [121.0945906, 14.7138238], [121.094827, 14.7139352], [121.0953252, 14.7143561], [121.0958203, 14.7147612], [121.096559, 14.7148925], [121.097137, 14.7149418], [121.0978676, 14.7149127], [121.0980434, 14.7149773], [121.0990641, 14.7157933]]}, "id": "way/592888171"}, {"type": "Feature", "properties": {"@id": "way/880371469", "designation": "national_tertiary_road", "fine:foot": "1,000 PHP", "foot": "use_sidepath", "highway": "primary", "lanes": "3", "lit": "yes", "name": "Payatas Road", "name:etymology:wikidata": "Q7156686", "name:etymology:wikipedia": "en:Payatas", "nat_name": "Payatas Road", "oneway": "yes", "oneway:bicycle": "yes", "parking:both": "no", "parking:both:restriction": "no_stopping", "sidewalk": "separate", "surface": "concrete", "turn:lanes": "right|right|right", "@relations": [{"role": "outer", "rel": 1762723, "reltags": {"admin_level": "10", "boundary": "administrative", "name": "Payatas", "postal_code": "1119", "ref": "137404138", "type": "boundary", "wikidata": "Q7156686", "wikipedia": "en:Payatas"}}], "total_cases": 0, "color": "#cccccc"}, "geometry": {"type": "LineString", "coordinates": [[121.0880872, 14.7003187], [121.0879446, 14.7001603], [121.0878517, 14.7000567], [121.0877497, 14.6999409]]}, "id": "way/880371469"}, {"type": "Feature", "properties": {"@id": "way/1057430003", "admin_level": "7", "boundary": "administrative", "@relations": [{"role": "outer", "rel": 1762723, "reltags": {"admin_level": "10", "boundary": "administrative", "name": "Payatas", "postal_code": "1119", "ref": "137404138", "type": "boundary", "wikidata": "Q7156686", "wikipedia": "en:Payatas"}}], "total_cases": 0, "color": "#cccccc"}, "geometry": {"type": "LineString", "coordinates": [[121.1007741, 14.7174868], [121.10088, 14.7178227], [121.1008961, 14.7180341], [121.1008827, 14.7182699], [121.100813, 14.7185828], [121.1006743, 14.7188767]]}, "id": "way/1057430003"}, {"type": "Feature", "properties": {"@id": "way/1057629921", "designation": "national_tertiary_road", "highway": "primary", "lanes": "2", "lit": "yes", "name": "Payatas Road", "name:etymology:wikidata": "Q7156686", "name:etymology:wikipedia": "en:Payatas", "nat_name": "Payatas Road", "sidewalk": "both", "surface": "concrete", "@relations": [{"role": "outer", "rel": 1762723, "reltags": {"admin_level": "10", "boundary": "administrative", "name": "Payatas", "postal_code": "1119", "ref": "137404138", "type": "boundary", "wikidata": "Q7156686", "wikipedia": "en:Payatas"}}], "total_cases": 0, "color": "#cccccc"}, "geometry": {"type": "LineString", "coordinates": [[121.0880922, 14.7058778], [121.0880932, 14.7060099], [121.0881, 14.7060914], [121.0881116, 14.7061506], [121.0882223, 14.7063197], [121.0883329, 14.7064466]]}, "id": "way/1057629921"}, {"type": "Feature", "properties": {"@id": "way/1057646044", "designation": "national_tertiary_road", "highway": "primary", "lanes": "4", "lit": "yes", "name": "Payatas Road", "name:etymology:wikidata": "Q7156686", "name:etymology:wikipedia": "en:Payatas", "nat_name": "Payatas Road", "sidewalk": "both", "surface": "concrete", "@relations": [{"role": "outer", "rel": 1762723, "reltags": {"admin_level": "10", "boundary": "administrative", "name": "Payatas", "postal_code": "1119", "ref": "137404138", "type": "boundary", "wikidata": "Q7156686", "wikipedia": "en:Payatas"}}], "total_cases": 0, "color": "#cccccc"}, "geometry": {"type": "LineString", "coordinates": [[121.0892284, 14.7075231], [121.0893762, 14.7075281], [121.0895685, 14.7075577], [121.0897098, 14.7076287]]}, "id": "way/1057646044"}, {"type": "Feature", "properties": {"@id": "way/1247080238", "admin_level": "7", "boundary": "administrative", "@relations": [{"role": "outer", "rel": 1762723, "reltags": {"admin_level": "10", "boundary": "administrative", "name": "Payatas", "postal_code": "1119", "ref": "137404138", "type": "boundary", "wikidata": "Q7156686", "wikipedia": "en:Payatas"}}], "total_cases": 0, "color": "#cccccc"}, "geometry": {"type": "LineString", "coordinates": [[121.1003833, 14.7205685], [121.1005819, 14.72049]]}, "id": "way/1247080238"}, {"type": "Feature", "properties": {"@id": "way/1414059127", "designation": "national_tertiary_road", "highway": "primary", "lanes": "4", "lit": "yes", "name": "Payatas Road", "name:etymology:wikidata": "Q7156686", "name:etymology:wikipedia": "en:Payatas", "nat_name": "Payatas Road", "oneway": "yes", "oneway:bicycle": "yes", "parking:both": "no", "parking:both:restriction": "no_stopping", "sidewalk": "both", "surface": "concrete", "@relations": [{"role": "outer", "rel": 1762723, "reltags": {"admin_level": "10", "boundary": "administrative", "name": "Payatas", "postal_code": "1119", "ref": "137404138", "type": "boundary", "wikidata": "Q7156686", "wikipedia": "en:Payatas"}}], "total_cases": 0, "color": "#cccccc"}, "geometry": {"type": "LineString", "coordinates": [[121.089362, 14.7022724], [121.0893603, 14.7021353], [121.0893598, 14.7020426], [121.0893599, 14.7019963], [121.0893579, 14.7019005], [121.089355, 14.7018396], [121.089351, 14.7017641], [121.089328, 14.7015229], [121.0893191, 14.7014306], [121.0893156, 14.7014093], [121.0893023, 14.7013282], [121.0892798, 14.701238], [121.0892205, 14.7011234], [121.0891231, 14.7010617], [121.0886613, 14.7008878], [121.0885158, 14.7008171], [121.0884299, 14.7007282], [121.0880872, 14.7003187]]}, "id": "way/1414059127"}, {"type": "Feature", "properties": {"@id": "node/24623934", "highway": "give_way", "total_cases": 0, "color": "#cccccc"}, "geometry": {"type": "Point", "coordinates": [121.0878517, 14.7000567]}, "id": "node/24623934"}, {"type": "Feature", "properties": {"@id": "node/251004906", "admin_level": "10", "admin_type:PH": "barangay", "name": "Payatas", "place": "quarter", "postal_code": "1119", "ref": "137404138", "@relations": [{"role": "label", "rel": 1762723, "reltags": {"admin_level": "10", "boundary": "administrative", "name": "Payatas", "postal_code": "1119", "ref": "137404138", "type": "boundary", "wikidata": "Q7156686", "wikipedia": "en:Payatas"}}], "total_cases": 762, "color": "#ff9900"}, "geometry": {"type": "Point", "coordinates": [121.0963083, 14.7070204]}, "id": "node/251004906"}, {"type": "Feature", "properties": {"@id": "node/5021888224", "crossing": "uncontrolled", "crossing:markings": "zebra", "highway": "crossing", "kerb": "yes", "tactile_paving": "no", "wheelchair": "yes", "total_cases": 0, "color": "#cccccc"}, "geometry": {"type": "Point", "coordinates": [121.0879446, 14.7001603]}, "id": "node/5021888224"}, {"type": "Feature", "properties": {"@id": "node/8188560933", "highway": "motorway_junction", "total_cases": 0, "color": "#cccccc"}, "geometry": {"type": "Point", "coordinates": [121.0880872, 14.7003187]}, "id": "node/8188560933"}, {"type": "Feature", "properties": {"@id": "node/9872653068", "button_operated": "no", "crossing": "uncontrolled", "crossing:markings": "zebra", "highway": "crossing", "kerb": "raised", "supervised": "no", "tactile_paving": "no", "wheelchair": "limited", "total_cases": 0, "color": "#cccccc"}, "geometry": {"type": "Point", "coordinates": [121.1113882, 14.721543]}, "id": "node/9872653068"}, {"type": "Feature", "properties": {"@id": "node/12060560735", "button_operated": "no", "crossing": "uncontrolled", "crossing:markings": "zebra", "highway": "crossing", "kerb": "raised", "supervised": "no", "tactile_paving": "no", "wheelchair": "limited", "total_cases": 0, "color": "#cccccc"}, "geometry": {"type": "Point", "coordinates": [121.111293, 14.7215402]}, "id": "node/12060560735"}]}